{
  "type": "FeatureCollection",
  "name": "_3",
  "crs": {
    "type": "name",
    "properties": {
      "name": "urn:ogc:def:crs:OGC:1.3:CRS84"
    }
  },
  "features": [
    {
      "type": "Feature",
      "properties": {
        "id": "1"
      },
      "geometry": {
        "type": "MultiLineString",
        "coordinates": [
          [
            [
              135.49131031617034,
              34.61262426808937
            ],
            [
              135.49200940880803,
              34.61253836058745
            ],
            [
              135.49183024024396,
              34.611986469605085
            ],
            [
              135.49231605941105,
              34.611963395537714
            ],
            [
              135.4921961709805,
              34.61171192979896
            ],
            [
              135.49379059667368,
              34.61158052407136
            ],
            [
              135.49385298013212,
              34.611304719387874
            ],
            [
              135.49412791594864,
              34.611017247829125
            ],
            [
              135.49432605261134,
              34.61088003745372
            ],
            [
              135.49425753450333,
              34.609383654793724
            ],
            [
              135.49428776277801,
              34.609125467577215
            ],
            [
              135.4943273525229,
              34.60860848820052
            ],
            [
              135.49345981666485,
              34.608567548628045
            ],
            [
              135.49349399238963,
              34.60766420492568
            ],
            [
              135.4939440274576,
              34.60765777793853
            ],
            [
              135.49382510625844,
              34.60554272032489
            ],
            [
              135.49375595481442,
              34.604785449935015
            ],
            [
              135.4949058802886,
              34.60473061099757
            ],
            [
              135.49496080760235,
              34.605065095617064
            ],
            [
              135.49555659793148,
              34.6050376006591
            ],
            [
              135.4961518130289,
              34.605112213092305
            ],
            [
              135.49684415370274,
              34.605124481411764
            ],
            [
              135.49710952282558,
              34.60516008343786
            ],
            [
              135.49775096671587,
              34.60511880630775
            ],
            [
              135.49785746195963,
              34.60507532538722
            ],
            [
              135.49798100117886,
              34.60535189760357
            ],
            [
              135.49837638528086,
              34.60521862893843
            ],
            [
              135.4987186338611,
              34.605088277779416
            ],
            [
              135.4988629739096,
              34.60506063690348
            ],
            [
              135.4999424489758,
              34.605049380375
            ],
            [
              135.50122473180045,
              34.60506717733133
            ],
            [
              135.50122395775333,
              34.604562102679665
            ],
            [
              135.50088624113067,
              34.60457013293357
            ]
          ]
        ]
      }
    },
    {
      "geometry": {
        "type": "LineString",
        "coordinates": [
          [
            135.6038036380777,
            34.66234758719496
          ],
          [
            135.6038036412504,
            34.66212654853948
          ],
          [
            135.6032190611541,
            34.66213299496022
          ],
          [
            135.6031734880676,
            34.66153066374523
          ],
          [
            135.6034107824798,
            34.66149189680134
          ],
          [
            135.6034343659493,
            34.66130041381636
          ],
          [
            135.6034469350527,
            34.66099926877651
          ],
          [
            135.6034375059012,
            34.66078212124135
          ],
          [
            135.6038806569927,
            34.66072524903271
          ],
          [
            135.6044353673541,
            34.66067743107553
          ],
          [
            135.6043388765182,
            34.66018996605751
          ],
          [
            135.6033388098162,
            34.66027039341008
          ],
          [
            135.6032877039769,
            34.65959220538036
          ],
          [
            135.6052432837525,
            34.65954833234291
          ],
          [
            135.6052828393439,
            34.66028115822375
          ],
          [
            135.6052983933355,
            34.66112385626514
          ],
          [
            135.6052695039856,
            34.66153331590053
          ],
          [
            135.6062829881064,
            34.66154186641395
          ],
          [
            135.6074364283071,
            34.66149249309405
          ],
          [
            135.6074606121181,
            34.66174946584078
          ],
          [
            135.6074873277799,
            34.6620620496036
          ],
          [
            135.6074873203599,
            34.66253914427829
          ],
          [
            135.6067894884639,
            34.66252270876065
          ],
          [
            135.6065450237566,
            34.66251724206275
          ],
          [
            135.606233885187,
            34.66255196191418
          ],
          [
            135.6055626640994,
            34.66256114430473
          ],
          [
            135.6052890753749,
            34.66257027277591
          ],
          [
            135.6044823153536,
            34.66257758185246
          ],
          [
            135.6039577702243,
            34.66255383461615
          ],
          [
            135.6037738721005,
            34.66248437307532
          ]
        ]
      },
      "properties": {
        "name": "東大阪市防災まち歩きルート"
      },
      "type": "Feature"
    },
    {
      "geometry": {
        "type": "LineString",
        "coordinates": [
          [
            135.5985117746914,
            34.50035946317515
          ],
          [
            135.5994195809583,
            34.50036412614421
          ],
          [
            135.6000279775795,
            34.50037684796344
          ],
          [
            135.6002859026344,
            34.50038106037694
          ],
          [
            135.6005725348974,
            34.50036455024129
          ],
          [
            135.6010005227396,
            34.50033706431032
          ],
          [
            135.6010220058247,
            34.49999058356591
          ],
          [
            135.6010839187218,
            34.49984060652385
          ],
          [
            135.6011336686779,
            34.49955955986309
          ],
          [
            135.6011966800497,
            34.49945911191654
          ],
          [
            135.6014021438537,
            34.49931787383159
          ],
          [
            135.6015373672679,
            34.49918035282833
          ],
          [
            135.6015888746961,
            34.49906111917765
          ],
          [
            135.6016011976284,
            34.49893022177053
          ],
          [
            135.6019136084687,
            34.49892305590183
          ],
          [
            135.6016105856794,
            34.4989122895868
          ],
          [
            135.6013900551766,
            34.4988902012096
          ],
          [
            135.6013592202247,
            34.49888432214047
          ],
          [
            135.6009611574539,
            34.49886733398577
          ],
          [
            135.6007330267103,
            34.49884359033459
          ],
          [
            135.6007616825012,
            34.49872105764569
          ],
          [
            135.6008187589053,
            34.49869532769845
          ],
          [
            135.6007718716676,
            34.49843621932681
          ],
          [
            135.6004877131699,
            34.49843388095265
          ],
          [
            135.6002500838735,
            34.49842762467431
          ],
          [
            135.6000395330142,
            34.49840852132071
          ],
          [
            135.599914852134,
            34.49839738859645
          ],
          [
            135.5999083159626,
            34.49832965896969
          ],
          [
            135.5999058875077,
            34.49816644232011
          ],
          [
            135.5998837792404,
            34.49791418170908
          ],
          [
            135.5998411742133,
            34.49773740175536
          ],
          [
            135.5997787063899,
            34.4975938617327
          ],
          [
            135.599599793288,
            34.49746966467717
          ],
          [
            135.5993930408129,
            34.497299060366
          ],
          [
            135.5991474370088,
            34.4971409531226
          ],
          [
            135.5989154252174,
            34.49704926907854
          ],
          [
            135.5986558517859,
            34.49692325594717
          ],
          [
            135.5983088359614,
            34.49670226169589
          ],
          [
            135.5979892198754,
            34.49650927932987
          ],
          [
            135.5978228907084,
            34.49640912559417
          ],
          [
            135.5976456956427,
            34.49636398924567
          ],
          [
            135.5973138739143,
            34.49634575569286
          ],
          [
            135.5970618012087,
            34.49631924094224
          ],
          [
            135.5968921071416,
            34.49628453416774
          ],
          [
            135.5967274082984,
            34.496224726172
          ],
          [
            135.5966173329329,
            34.49637421002794
          ],
          [
            135.5965223198814,
            34.49652169379375
          ],
          [
            135.5964411854574,
            34.49661827438992
          ],
          [
            135.5963565530803,
            34.49667326596552
          ],
          [
            135.5962234294535,
            34.49671940650401
          ],
          [
            135.5961755483739,
            34.49674885171027
          ],
          [
            135.5961372005244,
            34.49688217048582
          ],
          [
            135.5961242920144,
            34.49706410659341
          ],
          [
            135.5961670382341,
            34.49709159592778
          ],
          [
            135.596147288717,
            34.49751025535056
          ],
          [
            135.5961962509538,
            34.49804614169881
          ],
          [
            135.5959914624595,
            34.49802875289673
          ],
          [
            135.5958377343476,
            34.49802480799662
          ],
          [
            135.5958093127696,
            34.49865634073186
          ],
          [
            135.5958833172314,
            34.49871643988963
          ],
          [
            135.5960687970087,
            34.49870009915706
          ],
          [
            135.5972535389348,
            34.4986536834988
          ],
          [
            135.5979378768637,
            34.49864209190689
          ],
          [
            135.5986170486119,
            34.49860005120755
          ],
          [
            135.5986276730176,
            34.49915862951345
          ],
          [
            135.5986568978593,
            34.50028898924168
          ]
        ]
      },
      "properties": {
        "name": "富田林市防災まち歩きルート"
      },
      "type": "Feature"
    },
    {
      "type": "Feature",
      "properties": {
        "Name": "亀岡まち歩き経路"
      },
      "geometry": {
        "type": "LineString",
        "coordinates": [
          [
            135.5489887329204,
            34.99792659371944
          ],
          [
            135.5491903081345,
            34.9979223522616
          ],
          [
            135.5493127060016,
            34.99830502002213
          ],
          [
            135.5494033551531,
            34.99830570079501
          ],
          [
            135.5494192517445,
            34.99836291542194
          ],
          [
            135.5501878763005,
            34.99840921097294
          ],
          [
            135.5509838403438,
            34.99846844503359
          ],
          [
            135.552126156287,
            34.99909923379708
          ],
          [
            135.5523616182457,
            34.9993619287972
          ],
          [
            135.5524697063654,
            34.99933029904821
          ],
          [
            135.552516031191,
            34.99932903113374
          ],
          [
            135.5526636763237,
            34.99934040590262
          ],
          [
            135.5530950775029,
            34.99938199380045
          ],
          [
            135.5535330744964,
            34.99940320157376
          ],
          [
            135.5544742163494,
            34.99936079184154
          ],
          [
            135.553486097247,
            34.99939315207993
          ],
          [
            135.5525100063718,
            34.99934859551363
          ],
          [
            135.5523663655017,
            34.99938506956012
          ],
          [
            135.5522575705599,
            34.99928518364815
          ],
          [
            135.5518508159283,
            34.99925871543363
          ],
          [
            135.5506503823018,
            34.99934831200885
          ],
          [
            135.5503775346994,
            34.99922904468679
          ],
          [
            135.5503521618218,
            34.99917278734863
          ],
          [
            135.5494780166302,
            34.99902335754293
          ],
          [
            135.5494791911216,
            34.99871078944614
          ],
          [
            135.5494046979078,
            34.9983011826079
          ],
          [
            135.5492983638738,
            34.99830162831244
          ],
          [
            135.5491552752636,
            34.99792561335187
          ],
          [
            135.5489802651963,
            34.99794684236653
          ]
        ]
      }
    },
    {
      "type": "Feature",
      "properties": {
        "Name": "東部小学校まち歩きルート1"
      },
      "geometry": {
        "type": "LineString",
        "coordinates": [
          [
            133.8605528171367,
            34.31474460345953
          ],
          [
            133.8605526119863,
            34.31517464717162
          ],
          [
            133.8617204500524,
            34.31518375346576
          ],
          [
            133.8617359287713,
            34.3156239301419
          ],
          [
            133.8620389744209,
            34.31563573053613
          ],
          [
            133.8620304175236,
            34.31627091965829
          ],
          [
            133.8626079391614,
            34.316278786002
          ],
          [
            133.8626115776499,
            34.31631895115795
          ],
          [
            133.8629556600312,
            34.31631553104428
          ],
          [
            133.8644061259263,
            34.31629384059019
          ],
          [
            133.8663114971933,
            34.31628324800875
          ],
          [
            133.8663041080114,
            34.31592613467209
          ],
          [
            133.8671136563208,
            34.31593064490254
          ],
          [
            133.8671079006973,
            34.31530835386157
          ],
          [
            133.8681034927495,
            34.31532413422552
          ],
          [
            133.8684302147995,
            34.31632666687146
          ],
          [
            133.8689674679602,
            34.3163044314483
          ],
          [
            133.8694214053076,
            34.31626454152698
          ],
          [
            133.8692692573096,
            34.31589999513471
          ],
          [
            133.8689924056768,
            34.31530218028242
          ],
          [
            133.8670995329728,
            34.31529101190239
          ],
          [
            133.8648236576953,
            34.31523766352416
          ],
          [
            133.8616627341478,
            34.31517161815766
          ],
          [
            133.8616536232785,
            34.31472074224202
          ],
          [
            133.8605815664511,
            34.31473110885263
          ]
        ]
      }
    },
    {
      "type": "Feature",
      "properties": {
        "Name": "東部小学校まち歩きルート2"
      },
      "geometry": {
        "type": "LineString",
        "coordinates": [
          [
            133.8605798729155,
            34.31474455370364
          ],
          [
            133.8616608058228,
            34.3147063755028
          ],
          [
            133.8616481686925,
            34.31518230365779
          ],
          [
            133.8617238728695,
            34.31526567977975
          ],
          [
            133.861723858949,
            34.31562001931268
          ],
          [
            133.8620435146455,
            34.31561307946786
          ],
          [
            133.8620308528115,
            34.31690190488678
          ],
          [
            133.8626279023658,
            34.31690373446759
          ],
          [
            133.8626168747857,
            34.31873173313254
          ],
          [
            133.8562241605679,
            34.31859158204908
          ],
          [
            133.856243040798,
            34.31753309667552
          ],
          [
            133.856593136554,
            34.31751246591953
          ],
          [
            133.8569244784501,
            34.31746085359574
          ],
          [
            133.8572183082147,
            34.31740923851176
          ],
          [
            133.8573621001087,
            34.317347287643
          ],
          [
            133.857453135652,
            34.3172544132123
          ],
          [
            133.8575102617863,
            34.31711997677408
          ],
          [
            133.8576073787472,
            34.31685346166344
          ],
          [
            133.8585897288468,
            34.31686530983895
          ],
          [
            133.8585699849924,
            34.31521336437211
          ],
          [
            133.8585548550215,
            34.31513835578233
          ],
          [
            133.858544777539,
            34.31496750408266
          ],
          [
            133.8585750346275,
            34.31515502525432
          ],
          [
            133.8598111143299,
            34.31515925041376
          ],
          [
            133.8605311057489,
            34.31516370701075
          ],
          [
            133.8605286347921,
            34.31474139329622
          ]
        ]
      }
    },
    {
      "type": "Feature",
      "properties": {
        "Name": "名古屋女子大附属学校まち歩きルート"
      },
      "geometry": {
        "type": "LineString",
        "coordinates": [
          [
            136.9404456556443,
            35.12528607948972
          ],
          [
            136.9422846919899,
            35.12541136650734
          ],
          [
            136.9422993229942,
            35.125610907255
          ],
          [
            136.9422367147508,
            35.1257778290763
          ],
          [
            136.9421880212665,
            35.12595306214438
          ],
          [
            136.9421711609831,
            35.12605022692269
          ],
          [
            136.9421882985544,
            35.12616746084415
          ],
          [
            136.9421260004551,
            35.12648169038138
          ],
          [
            136.9421115514103,
            35.12658716256889
          ],
          [
            136.9421417993154,
            35.12673802698045
          ],
          [
            136.9421856051404,
            35.12684059008472
          ],
          [
            136.9424215951109,
            35.12713991335852
          ],
          [
            136.9418204862688,
            35.12723722738669
          ],
          [
            136.9413347841035,
            35.12717160656726
          ],
          [
            136.9412617162619,
            35.12797705609826
          ],
          [
            136.941203383391,
            35.1285170121311
          ],
          [
            136.9411539847381,
            35.12885533157841
          ],
          [
            136.9404936484407,
            35.12880167377654
          ],
          [
            136.9404865399387,
            35.12889832181142
          ],
          [
            136.9400231950876,
            35.12887699901975
          ],
          [
            136.9401430072661,
            35.12780375010221
          ],
          [
            136.9402885839201,
            35.12646435144685
          ],
          [
            136.9404406862902,
            35.12530254659886
          ],
          [
            136.9404669927823,
            35.12514847029787
          ],
          [
            136.9403201043959,
            35.12513188231554
          ],
          [
            136.9404870751231,
            35.12381500201104
          ]
        ]
      }
    },
    {
      "geometry": {
        "type": "LineString",
        "coordinates": [
          [
            139.0608445187917,
            37.92089531401492
          ],
          [
            139.0608158472011,
            37.92081882682736
          ],
          [
            139.060980734305,
            37.92058323092699
          ],
          [
            139.0612844764344,
            37.91975355388038
          ],
          [
            139.0611816450616,
            37.91950840522109
          ],
          [
            139.0614607586245,
            37.9194370017571
          ],
          [
            139.0613374536032,
            37.91912573529671
          ],
          [
            139.0616146006732,
            37.91899919144257
          ],
          [
            139.0614471345967,
            37.91864437684436
          ],
          [
            139.0616466433294,
            37.91858420017581
          ],
          [
            139.0614564104657,
            37.91815224996513
          ],
          [
            139.0618691665324,
            37.91803463208947
          ],
          [
            139.0617602357203,
            37.91787575591819
          ],
          [
            139.0612028330387,
            37.91763962461814
          ],
          [
            139.0612738490267,
            37.91752580279726
          ],
          [
            139.0611923068981,
            37.91749260734252
          ],
          [
            139.0617601636161,
            37.91669908163519
          ],
          [
            139.0619958092855,
            37.91629376296605
          ],
          [
            139.0622720291331,
            37.91582806919688
          ],
          [
            139.0624104848183,
            37.91561813452766
          ],
          [
            139.0628544713068,
            37.91488645020643
          ],
          [
            139.0629740381816,
            37.91466132324931
          ],
          [
            139.0632582974485,
            37.91411908721642
          ],
          [
            139.0642745206721,
            37.91445263177923
          ],
          [
            139.0657291220767,
            37.91493636882643
          ],
          [
            139.0665649375872,
            37.9152570656011
          ],
          [
            139.0661360291629,
            37.9160155951507
          ],
          [
            139.0671948602213,
            37.91642909754052
          ],
          [
            139.0672996322391,
            37.91648850469866
          ],
          [
            139.0670948405066,
            37.91691771907958
          ],
          [
            139.06691168578,
            37.91731501196584
          ],
          [
            139.0651320586765,
            37.91665525383512
          ],
          [
            139.0650241326132,
            37.9168144844094
          ],
          [
            139.0643507526775,
            37.91656872795039
          ],
          [
            139.0640253334505,
            37.9171039484442
          ],
          [
            139.0638195925273,
            37.91747399092249
          ],
          [
            139.0636878610484,
            37.91769796598983
          ],
          [
            139.0635554882022,
            37.91788555458556
          ],
          [
            139.0633945412974,
            37.9180794367382
          ],
          [
            139.0631454296298,
            37.9182902084707
          ],
          [
            139.0629581460687,
            37.91843728976711
          ],
          [
            139.0627396667617,
            37.91858336227696
          ],
          [
            139.0626323212604,
            37.91871448759845
          ],
          [
            139.0624628908772,
            37.91914241082344
          ],
          [
            139.0628147413304,
            37.91922588697082
          ],
          [
            139.0631370455047,
            37.9193716610537
          ],
          [
            139.0633594394588,
            37.91948575317937
          ],
          [
            139.0632007063965,
            37.91984633668189
          ],
          [
            139.0630714069395,
            37.91982332216704
          ],
          [
            139.0629904212706,
            37.92008541409736
          ],
          [
            139.0628773455054,
            37.92042081671207
          ],
          [
            139.0625495663051,
            37.92038091774283
          ],
          [
            139.0623117891467,
            37.92036010229968
          ],
          [
            139.0620008058561,
            37.92031446264266
          ],
          [
            139.0620085742643,
            37.92031900723447
          ],
          [
            139.0618143241701,
            37.92074094337585
          ],
          [
            139.0610308949048,
            37.92060639778407
          ]
        ]
      },
      "properties": {
        "name": "新潟市天明町 防災まち歩きルート"
      },
      "type": "Feature"
    },
    {
      "geometry": {
        "type": "LineString",
        "coordinates": [
          [
            130.6805232025084,
            32.73876820485712
          ],
          [
            130.6803645278064,
            32.73859286043424
          ],
          [
            130.6803854135658,
            32.73831480090667
          ],
          [
            130.6803554019718,
            32.73817686255328
          ],
          [
            130.6806791292507,
            32.73809136629515
          ],
          [
            130.6809207695074,
            32.73801353950901
          ],
          [
            130.681095917695,
            32.73793289952726
          ],
          [
            130.6814095560112,
            32.73780821355277
          ],
          [
            130.6816598349907,
            32.7377226528119
          ],
          [
            130.6817318572213,
            32.73793292039291
          ],
          [
            130.6817917094434,
            32.73807719612624
          ],
          [
            130.6818288708558,
            32.73825641577209
          ],
          [
            130.6818535476173,
            32.73840980234827
          ],
          [
            130.6818811413145,
            32.73865257098717
          ],
          [
            130.6818950453998,
            32.73884379017024
          ],
          [
            130.681937148154,
            32.73911051090732
          ],
          [
            130.681943553668,
            32.73917842164612
          ],
          [
            130.6820610051719,
            32.73943865423142
          ],
          [
            130.6821661719858,
            32.73965127831946
          ],
          [
            130.6823218962614,
            32.7399379656921
          ],
          [
            130.6824708632535,
            32.74000830272318
          ],
          [
            130.6825517921562,
            32.73993529273029
          ],
          [
            130.6826089563772,
            32.73996768526543
          ],
          [
            130.6826592527846,
            32.73990702538097
          ],
          [
            130.6828334631181,
            32.73993926800815
          ],
          [
            130.6829813049104,
            32.73995138026577
          ],
          [
            130.6831526224124,
            32.73999197924521
          ],
          [
            130.6832852462639,
            32.74002866369364
          ],
          [
            130.6833564124407,
            32.73979090994492
          ],
          [
            130.6835848293331,
            32.73947809757546
          ],
          [
            130.6838752721675,
            32.73912369945706
          ],
          [
            130.6840630428813,
            32.73883639096921
          ],
          [
            130.6842738066395,
            32.73856511677493
          ],
          [
            130.6843467836237,
            32.738235090979
          ],
          [
            130.684291545703,
            32.73799168399897
          ],
          [
            130.6842249882224,
            32.73771799902584
          ],
          [
            130.684176739133,
            32.73748227431895
          ],
          [
            130.6841159882328,
            32.73727396823546
          ],
          [
            130.6840335254299,
            32.7371156848177
          ],
          [
            130.6839511146621,
            32.73698423144552
          ],
          [
            130.6838509000021,
            32.73670730109663
          ],
          [
            130.6838198309583,
            32.7365558236973
          ],
          [
            130.6833318671445,
            32.73665795950296
          ],
          [
            130.6831310626863,
            32.73630154080386
          ],
          [
            130.6829101965509,
            32.73591522474386
          ],
          [
            130.682698129593,
            32.73554074268937
          ],
          [
            130.6825726297137,
            32.73535918596243
          ],
          [
            130.6824617496674,
            32.73517406527795
          ],
          [
            130.6823232474303,
            32.73485329145553
          ],
          [
            130.6820504447611,
            32.73396980588409
          ],
          [
            130.6824973054382,
            32.73388609955407
          ],
          [
            130.6829314087154,
            32.73386454125831
          ],
          [
            130.6832720359933,
            32.73381852233827
          ],
          [
            130.6834842843789,
            32.73378798542879
          ],
          [
            130.683625139736,
            32.73335701914237
          ],
          [
            130.6837180947808,
            32.73315389021413
          ],
          [
            130.6837757071515,
            32.7329029453649
          ],
          [
            130.6837801612886,
            32.73257817767642
          ],
          [
            130.6836396683185,
            32.73255140011129
          ],
          [
            130.6829501511725,
            32.73255138381138
          ],
          [
            130.6823434939649,
            32.73255806986464
          ],
          [
            130.6820636083838,
            32.73257147175055
          ],
          [
            130.6819456213155,
            32.73253799439529
          ],
          [
            130.6818208521372,
            32.73225244441665
          ],
          [
            130.6818052222036,
            32.73217078352264
          ],
          [
            130.6814394628973,
            32.73226215887823
          ],
          [
            130.6816494952077,
            32.73269455823906
          ],
          [
            130.6818386791078,
            32.73325811743541
          ],
          [
            130.6817169316014,
            32.73328267404753
          ],
          [
            130.6817389403018,
            32.73336541360235
          ],
          [
            130.6818724954282,
            32.73378658576739
          ],
          [
            130.6820331884564,
            32.73425466300286
          ],
          [
            130.6823905340912,
            32.73525476552405
          ],
          [
            130.6824527726644,
            32.73541732838325
          ],
          [
            130.6826401389314,
            32.73576923131996
          ],
          [
            130.682601228242,
            32.73624111737686
          ],
          [
            130.6825584999406,
            32.73645563372279
          ],
          [
            130.6824418130128,
            32.73654686247751
          ],
          [
            130.6821558135987,
            32.73677599249113
          ],
          [
            130.6817010084684,
            32.73703873224277
          ],
          [
            130.6815507909442,
            32.73714927813826
          ],
          [
            130.6814720081042,
            32.73720652437806
          ],
          [
            130.6814184688445,
            32.73716701515903
          ],
          [
            130.6812740474404,
            32.73729395813268
          ],
          [
            130.6811045947723,
            32.73739302347409
          ],
          [
            130.6808343045019,
            32.73757086562969
          ],
          [
            130.6805471358115,
            32.73777949415052
          ],
          [
            130.6803899570905,
            32.73789142603746
          ],
          [
            130.6802914878552,
            32.73796538092503
          ],
          [
            130.6803346969252,
            32.73811765115322
          ],
          [
            130.6802972956382,
            32.73815824541867
          ],
          [
            130.6796800668604,
            32.73814662990915
          ],
          [
            130.6794909944291,
            32.73816691399924
          ],
          [
            130.6792715722871,
            32.73815538156408
          ],
          [
            130.679062831374,
            32.73816996232343
          ],
          [
            130.67872064524,
            32.73822291084679
          ]
        ]
      },
      "properties": {
        "name": "熊本市南区川尻地区 防災まち歩きルート"
      },
      "type": "Feature"
    },
    {
      "type": "Feature",
      "geometry": {
        "type": "LineString",
        "coordinates": [
          [
            135.2250647865781,
            34.33010012589421,
            0
          ],
          [
            135.224652121888,
            34.32992548113344,
            0
          ],
          [
            135.2239388884271,
            34.32960464921321,
            0
          ],
          [
            135.2234383288865,
            34.32939209572777,
            0
          ],
          [
            135.223157943566,
            34.32926675126841,
            0
          ],
          [
            135.2230150694361,
            34.32923072647841,
            0
          ],
          [
            135.2228775996895,
            34.32940157629596,
            0
          ],
          [
            135.2227850040697,
            34.32951109200894,
            0
          ],
          [
            135.2227010811756,
            34.32965384538442,
            0
          ],
          [
            135.2226135147009,
            34.3297987685482,
            0
          ],
          [
            135.2224191149476,
            34.33007285034853,
            0
          ],
          [
            135.222182646094,
            34.33042140137235,
            0
          ],
          [
            135.2219047622578,
            34.33083588708563,
            0
          ],
          [
            135.2217147131335,
            34.33109899000569,
            0
          ],
          [
            135.2213471781772,
            34.33160071747623,
            0
          ],
          [
            135.221228446424,
            34.33166790748199,
            0
          ],
          [
            135.2210183161306,
            34.33161030154588,
            0
          ],
          [
            135.220963256891,
            34.33170683562114,
            0
          ],
          [
            135.2211863707314,
            34.33184625448242,
            0
          ],
          [
            135.2213547930091,
            34.33193528017254,
            0
          ],
          [
            135.2212858623803,
            34.332092122875,
            0
          ],
          [
            135.2216449336662,
            34.33225979614129,
            0
          ],
          [
            135.2218748800444,
            34.33234127409099,
            0
          ],
          [
            135.2221306395489,
            34.33238418739973,
            0
          ],
          [
            135.2223405611907,
            34.33239857159041,
            0
          ],
          [
            135.2226401800686,
            34.33239561458399,
            0
          ],
          [
            135.2228937312983,
            34.33237259174214,
            0
          ],
          [
            135.2230855285778,
            34.33231569995916,
            0
          ],
          [
            135.2232665987711,
            34.33212897887766,
            0
          ],
          [
            135.2234180494966,
            34.33190756754784,
            0
          ],
          [
            135.2234804843079,
            34.33189020825782,
            0
          ],
          [
            135.2237244001363,
            34.3320163287307,
            0
          ],
          [
            135.2239912801489,
            34.33211890229817,
            0
          ],
          [
            135.2240963800259,
            34.33208192120333,
            0
          ],
          [
            135.2242830252196,
            34.33188520007015,
            0
          ],
          [
            135.2245917862325,
            34.33177396452889,
            0
          ],
          [
            135.2249301206211,
            34.3316479234398,
            0
          ],
          [
            135.2250778969922,
            34.33164793448037,
            0
          ],
          [
            135.2254476264553,
            34.33141988805571,
            0
          ],
          [
            135.2256300313281,
            34.33125814386549,
            0
          ],
          [
            135.2253784842665,
            34.33105229505971,
            0
          ],
          [
            135.225134252952,
            34.33087643455787,
            0
          ],
          [
            135.2248929954335,
            34.33077285434364,
            0
          ],
          [
            135.2246536095292,
            34.33064677127194,
            0
          ],
          [
            135.2243928754125,
            34.33054607364694,
            0
          ],
          [
            135.2243012440902,
            34.33048394294358,
            0
          ],
          [
            135.2246728227007,
            34.32996960942779,
            0
          ],
          [
            135.225051463134,
            34.33013576363608,
            0
          ]
        ]
      },
      "properties": {
        "name": "まち歩きルート",
        "_color": "#0033ff",
        "_opacity": 0.5,
        "_weight": 5
      }
    },
    {
      "type": "Feature",
      "properties": {
        "Name": "熊本県益城町ルート",
        "tessellate": 1,
        "extrude": 0,
        "visibility": -1
      },
      "geometry": {
        "type": "MultiLineString",
        "coordinates": [
          [
            [
              130.8016095165638,
              32.78106310987004
            ],
            [
              130.8012704366538,
              32.78180139808987
            ],
            [
              130.8009421766421,
              32.78229089561695
            ],
            [
              130.8003659498994,
              32.78198862720309
            ],
            [
              130.8000675411484,
              32.78177551524839
            ],
            [
              130.7998603573354,
              32.781906137688
            ],
            [
              130.7994363352346,
              32.78232963054283
            ],
            [
              130.7996711161932,
              32.78254545287682
            ],
            [
              130.8002225386117,
              32.78278159292499
            ],
            [
              130.800401792524,
              32.78292290809221
            ],
            [
              130.8002409611681,
              32.78322048376069
            ],
            [
              130.7998928449573,
              32.78372097949654
            ],
            [
              130.7996751672273,
              32.78416822012643
            ],
            [
              130.79971896635,
              32.7848351274377
            ],
            [
              130.7999061909202,
              32.78598763965127
            ],
            [
              130.8000562917803,
              32.7859636797257
            ]
          ],
          [
            [
              130.8015908811383,
              32.78631001564167
            ],
            [
              130.8028089277146,
              32.78672601695769
            ]
          ],
          [
            [
              130.8007300674441,
              32.78562126986159
            ],
            [
              130.800691722267,
              32.78598898801118
            ],
            [
              130.8002909614495,
              32.78596002230022
            ],
            [
              130.8000102760572,
              32.78600236375227
            ],
            [
              130.8000415442118,
              32.78662598040371
            ],
            [
              130.7999466621734,
              32.78770154836638
            ],
            [
              130.8008503470506,
              32.78786569545996
            ],
            [
              130.801046717261,
              32.78740023251785
            ],
            [
              130.8012107232985,
              32.786996177449
            ],
            [
              130.8013900922687,
              32.78678881073115
            ],
            [
              130.8015173585185,
              32.78656575888836
            ],
            [
              130.8015940553955,
              32.78639264991701
            ],
            [
              130.8015884212638,
              32.7862513891565
            ],
            [
              130.8018140523573,
              32.78560700979362
            ],
            [
              130.8019498876328,
              32.78519647323978
            ],
            [
              130.8021933816287,
              32.78416111057125
            ],
            [
              130.8022522527684,
              32.78401193989015
            ],
            [
              130.8022816280267,
              32.78365399095322
            ],
            [
              130.8022731948587,
              32.78311734946615
            ],
            [
              130.8023554869894,
              32.7828301370565
            ],
            [
              130.8025665944338,
              32.78258335476775
            ],
            [
              130.8027950024612,
              32.78217870396711
            ],
            [
              130.8031096048678,
              32.78183360011015
            ],
            [
              130.8031356600852,
              32.78174179960015
            ],
            [
              130.8029775466558,
              32.78161101490405
            ],
            [
              130.8029640764916,
              32.78160974890918
            ],
            [
              130.8024140620855,
              32.7813330589092
            ],
            [
              130.8022920158825,
              32.78128050950637
            ],
            [
              130.8016248705677,
              32.78104484965225
            ],
            [
              130.8019731245587,
              32.78017144540046
            ],
            [
              130.8024128425022,
              32.7791899449707
            ],
            [
              130.8020316371952,
              32.77907210027416
            ],
            [
              130.8013922265238,
              32.77908771221355
            ],
            [
              130.8001247959159,
              32.77926687979127
            ],
            [
              130.7994182153169,
              32.77925863647555
            ]
          ]
        ]
      }
    },
    {
      "type": "Feature",
      "properties": {
        "stroke": "#FFFF00",
        "stroke-width": "3",
        "fill": "#FFFF00"
      },
      "geometry": {
        "type": "LineString",
        "coordinates": [
          [
            131.0359069507541,
            34.11866235974513
          ],
          [
            131.0358646,
            34.1182432
          ],
          [
            131.0360603,
            34.1181671
          ],
          [
            131.0361443,
            34.1181378
          ],
          [
            131.0363109,
            34.1181231
          ],
          [
            131.0364294,
            34.1181269
          ],
          [
            131.0365156,
            34.1181486
          ],
          [
            131.0367306,
            34.1182524
          ],
          [
            131.0368894,
            34.1182922
          ],
          [
            131.0372007,
            34.1182986
          ],
          [
            131.0373232,
            34.1182833
          ],
          [
            131.0375598,
            34.1181946
          ],
          [
            131.0377743,
            34.1180824
          ],
          [
            131.0380095,
            34.1179464
          ],
          [
            131.038385,
            34.1177751
          ],
          [
            131.0385666,
            34.1176992
          ],
          [
            131.0390704,
            34.1174326
          ],
          [
            131.0392866,
            34.1173524
          ],
          [
            131.0397153,
            34.1172311
          ],
          [
            131.0397748,
            34.1172142
          ],
          [
            131.039768,
            34.1171641
          ],
          [
            131.0394622,
            34.1169543
          ],
          [
            131.0393241,
            34.1168987
          ],
          [
            131.0393131,
            34.1163567
          ],
          [
            131.0389036,
            34.1163703
          ],
          [
            131.0388828,
            34.1159193
          ],
          [
            131.03844187302948,
            34.115972128160315
          ],
          [
            131.0375153,
            34.1161073
          ],
          [
            131.0373362,
            34.11612
          ],
          [
            131.0370688,
            34.1161271
          ],
          [
            131.0368612,
            34.1161175
          ],
          [
            131.0366778,
            34.1160971
          ],
          [
            131.0364863,
            34.1160646
          ],
          [
            131.03611014282313,
            34.11597959538028
          ],
          [
            131.0358312,
            34.1159145
          ],
          [
            131.0357241,
            34.1158845
          ],
          [
            131.0350417,
            34.11558
          ],
          [
            131.0349449,
            34.1155211
          ],
          [
            131.0346728,
            34.1153447
          ],
          [
            131.0345704,
            34.1152656
          ],
          [
            131.0345324,
            34.1153219
          ],
          [
            131.0345991,
            34.1166336
          ],
          [
            131.0346432,
            34.1173938
          ],
          [
            131.03467390117467,
            34.11791743271065
          ],
          [
            131.0346945,
            34.1183112
          ],
          [
            131.03436738493943,
            34.118329254499386
          ],
          [
            131.0340254,
            34.1183366
          ],
          [
            131.0336931,
            34.1183014
          ],
          [
            131.0333804,
            34.1183031
          ],
          [
            131.03271007380707,
            34.11829172323254
          ],
          [
            131.0321255,
            34.1183135
          ],
          [
            131.03193812283234,
            34.11831770001853
          ],
          [
            131.03198198362628,
            34.11866276543806
          ],
          [
            131.0316956,
            34.1186979
          ],
          [
            131.0317066,
            34.1187629
          ],
          [
            131.0317777,
            34.1188861
          ],
          [
            131.0318904,
            34.1190038
          ],
          [
            131.0319655,
            34.1190283
          ],
          [
            131.0320279,
            34.119024
          ],
          [
            131.0321404001357,
            34.119888620556736
          ],
          [
            131.0320650846387,
            34.12011760343261
          ],
          [
            131.0314622319834,
            34.12014395545993
          ],
          [
            131.0313069367808,
            34.1201787475916
          ],
          [
            131.03114317481948,
            34.12023390664576
          ],
          [
            131.03088412021987,
            34.12031974898981
          ]
        ]
      }
    },
    {
      "type": "Feature",
      "properties": {
        "stroke": "#ff0000",
        "stroke-width": "3",
        "fill": "#FFFF00"
      },
      "geometry": {
        "type": "LineString",
        "coordinates": [
          [
            131.0309738075866,
            34.120807654400494
          ],
          [
            131.0311937,
            34.1208703
          ],
          [
            131.03119483729458,
            34.121240872469265
          ],
          [
            131.0311985,
            34.121504
          ],
          [
            131.0312917,
            34.1217992
          ],
          [
            131.0314523,
            34.1223663
          ],
          [
            131.0314954,
            34.1224078
          ],
          [
            131.0315531,
            34.1224306
          ],
          [
            131.0322753,
            34.12236450000001
          ],
          [
            131.0324565,
            34.1223574
          ],
          [
            131.0325425,
            34.1229594
          ],
          [
            131.0326167,
            34.1235021
          ],
          [
            131.0326356,
            34.1240129
          ],
          [
            131.0326168,
            34.1246446
          ],
          [
            131.03257662627072,
            34.12525018056259
          ],
          [
            131.0325055,
            34.1257902
          ],
          [
            131.0324072,
            34.1266987
          ],
          [
            131.0325455,
            34.1266971
          ],
          [
            131.0326762,
            34.1266849
          ],
          [
            131.0328418,
            34.1266555
          ],
          [
            131.0329378,
            34.1266466
          ],
          [
            131.0330109,
            34.1266498
          ],
          [
            131.0334156,
            34.1261629
          ],
          [
            131.0336509,
            34.1258692
          ],
          [
            131.0340959,
            34.1253318
          ],
          [
            131.0346579,
            34.124919
          ],
          [
            131.0346857,
            34.1238962
          ],
          [
            131.0346909,
            34.1233215
          ],
          [
            131.0347088,
            34.122232
          ],
          [
            131.0338873,
            34.1222813
          ],
          [
            131.0336472,
            34.1222835
          ],
          [
            131.033261,
            34.1222768
          ],
          [
            131.0330906,
            34.1222868
          ],
          [
            131.0324565,
            34.1223574
          ],
          [
            131.0315531,
            34.1224306
          ],
          [
            131.0314954,
            34.1224078
          ],
          [
            131.0314523,
            34.1223663
          ],
          [
            131.0312917,
            34.1217992
          ],
          [
            131.0311985,
            34.121504
          ],
          [
            131.0311967027569,
            34.12122045530088
          ],
          [
            131.0311937,
            34.1208703
          ]
        ]
      }
    },
    {
      "type": "Feature",
      "properties": {
        "stroke": "#0000ff",
        "stroke-width": "3",
        "fill": "#FFFF00"
      },
      "geometry": {
        "type": "LineString",
        "coordinates": [
          [
            131.00085419400241,
            34.13252479984423
          ],
          [
            131.0010463,
            34.132528
          ],
          [
            131.0012028,
            34.1325145
          ],
          [
            131.0011817,
            34.132108
          ],
          [
            131.0013029,
            34.1316457
          ],
          [
            131.0014144,
            34.1313279
          ],
          [
            131.0015055,
            34.1310549
          ],
          [
            131.0015698380591,
            34.13093230504688
          ],
          [
            131.0017048,
            34.1307763
          ],
          [
            131.0017738,
            34.130674
          ],
          [
            131.0020667,
            34.1300285
          ],
          [
            131.00222705012425,
            34.13000287781088
          ],
          [
            131.003026521799,
            34.12990860185272
          ],
          [
            131.0031116903043,
            34.12995015114431
          ],
          [
            131.00326092420235,
            34.12993458938357
          ],
          [
            131.00314479615508,
            34.13036467677208
          ],
          [
            131.0030085812063,
            34.13077080738191
          ],
          [
            131.00282409239273,
            34.13127324281325
          ],
          [
            131.00271740455148,
            34.13161005173705
          ],
          [
            131.0025776212897,
            34.13199882582501
          ],
          [
            131.0024101212897,
            34.13247762582502
          ],
          [
            131.00236047813982,
            34.13262861616571
          ],
          [
            131.00230772608725,
            34.1327537374821
          ],
          [
            131.00222764695604,
            34.1329363176199
          ],
          [
            131.00211296038034,
            34.13311177908976
          ],
          [
            131.00202156470027,
            34.13322634818714
          ],
          [
            131.00186897950783,
            34.133336941535035
          ],
          [
            131.00171287050978,
            34.13340675912577
          ],
          [
            131.0013416899652,
            34.13352885818823
          ],
          [
            131.00124134039535,
            34.13362636581011
          ],
          [
            131.0010319425154,
            34.133637109874925
          ],
          [
            131.0009795937683,
            34.13358398762484
          ],
          [
            131.00088378557209,
            34.1335737412068
          ],
          [
            131.00086888942278,
            34.13346919802006
          ],
          [
            131.0013036456827,
            34.13340032915786
          ],
          [
            131.001268,
            34.133022
          ],
          [
            131.0012028,
            34.1325145
          ],
          [
            131.0009591,
            34.1325336
          ]
        ]
      }
    },
    {
      "type": "Feature",
      "properties": {
        "Name": "住吉区防災まち歩きコース",
        "description": null,
        "timestamp": null,
        "begin": null,
        "end": null,
        "altitudeMode": null,
        "tessellate": 1,
        "extrude": 0,
        "visibility": -1,
        "drawOrder": null,
        "icon": null,
        "name": "住吉区防災まち歩きコース"
      },
      "geometry": {
        "type": "LineString",
        "coordinates": [
          [
            135.5051401472585,
            34.59352685912445,
            0.0
          ],
          [
            135.5052140887803,
            34.59420158021536,
            0.0
          ],
          [
            135.5037877567037,
            34.59426262556062,
            0.0
          ],
          [
            135.5027977037073,
            34.59433346926361,
            0.0
          ],
          [
            135.5011224975802,
            34.59436677569126,
            0.0
          ],
          [
            135.4997562350728,
            34.59444710780721,
            0.0
          ],
          [
            135.4993344068978,
            34.59415911144151,
            0.0
          ],
          [
            135.497482091758,
            34.59412513081343,
            0.0
          ],
          [
            135.496864382382,
            34.59484550751416,
            0.0
          ],
          [
            135.4964251015973,
            34.5950476675774,
            0.0
          ],
          [
            135.4960728729895,
            34.59534148473251,
            0.0
          ],
          [
            135.4956342039169,
            34.59531630556796,
            0.0
          ],
          [
            135.495327017771,
            34.59530225063044,
            0.0
          ],
          [
            135.4947333833841,
            34.59555477489674,
            0.0
          ],
          [
            135.4944840364808,
            34.59556611514033,
            0.0
          ],
          [
            135.4945321245333,
            34.59573725778953,
            0.0
          ],
          [
            135.4937610958685,
            34.59586624512654,
            0.0
          ],
          [
            135.4943896250746,
            34.5970290491363,
            0.0
          ],
          [
            135.4959901162431,
            34.59669286659609,
            0.0
          ],
          [
            135.4969934154152,
            34.59653165257119,
            0.0
          ],
          [
            135.4970501935275,
            34.59693417012817,
            0.0
          ],
          [
            135.4970512813314,
            34.59768754529423,
            0.0
          ],
          [
            135.4980661475106,
            34.59767281788256,
            0.0
          ],
          [
            135.4998402532904,
            34.59757577098429,
            0.0
          ],
          [
            135.499615793449,
            34.59708760185934,
            0.0
          ],
          [
            135.4997957659735,
            34.59670868514354,
            0.0
          ],
          [
            135.5026222663625,
            34.59656624628995,
            0.0
          ],
          [
            135.5025915103345,
            34.59598346480588,
            0.0
          ],
          [
            135.5032713978676,
            34.59599806995727,
            0.0
          ],
          [
            135.5030880930979,
            34.59460580749788,
            0.0
          ]
        ]
      }
    },
    {
      "type": "Feature",
      "properties": {
        "stroke": "#00ff40",
        "stroke-width": "3",
        "fill": "#FFFF00",
        "name": "横路小学校ルート1",
        "Name": "横路小学校ルート1",
        "route_group": "横路小学校ルート"
      },
      "geometry": {
        "type": "LineString",
        "coordinates": [
          [
            132.61432489040442,
            34.242310088273875
          ],
          [
            132.6140355253016,
            34.242085724902196
          ],
          [
            132.61382247339262,
            34.24224745143111
          ],
          [
            132.6141201720833,
            34.24266138163585
          ],
          [
            132.61416267598494,
            34.24274354025228
          ],
          [
            132.6139876329544,
            34.24301670538404
          ],
          [
            132.61397826861133,
            34.24304392413775
          ],
          [
            132.6139326925625,
            34.243270331504256
          ],
          [
            132.61394419775613,
            34.24332520050176
          ],
          [
            132.6139480366711,
            34.24336558249871
          ],
          [
            132.6139697904865,
            34.24343678228674
          ],
          [
            132.6139948774483,
            34.24349935727613
          ],
          [
            132.6140563008018,
            34.24362637834916
          ],
          [
            132.61409569624465,
            34.24368452849217
          ],
          [
            132.6141636993964,
            34.24373999310973
          ],
          [
            132.61421591650588,
            34.24383478752267
          ],
          [
            132.6142559903473,
            34.24389529460004
          ],
          [
            132.61426813413604,
            34.243929581966626
          ],
          [
            132.61426813438476,
            34.24395479334553
          ],
          [
            132.61416977328275,
            34.24399916582973
          ],
          [
            132.61405683974104,
            34.24405664814336
          ],
          [
            132.61404469684436,
            34.24410102023396
          ],
          [
            132.61400948123767,
            34.24414841776305
          ],
          [
            132.61395847892175,
            34.24416657007543
          ],
          [
            132.6138006145637,
            34.24416253652959
          ],
          [
            132.61371439639387,
            34.24415043515605
          ],
          [
            132.61365732235606,
            34.24411413077309
          ],
          [
            132.61357717595172,
            34.244091944778475
          ],
          [
            132.61335501104972,
            34.24409829010499
          ],
          [
            132.61328749745755,
            34.24403066342916
          ],
          [
            132.61325143425293,
            34.24403381562108
          ],
          [
            132.61326753949527,
            34.24401067514458
          ],
          [
            132.61324957012255,
            34.243943526265866
          ],
          [
            132.61335622411892,
            34.24381552641492
          ],
          [
            132.61344238478108,
            34.24380453555205
          ],
          [
            132.61349338694959,
            34.243776298918235
          ],
          [
            132.6135103876048,
            34.24364620852617
          ],
          [
            132.61349095832693,
            34.24358872669198
          ],
          [
            132.6134120271925,
            34.24352317756062
          ],
          [
            132.61331366622167,
            34.243517126321066
          ],
          [
            132.613221377274,
            34.24347779637776
          ],
          [
            132.61318009021974,
            34.243419305852626
          ],
          [
            132.61316916148266,
            34.24335678175317
          ],
          [
            132.61309630191477,
            34.2432831640152
          ],
          [
            132.61303566042332,
            34.24322587795397
          ],
          [
            132.61302717177094,
            34.243171491596065
          ],
          [
            132.6133073176533,
            34.242794818547985
          ],
          [
            132.6135387818846,
            34.24251201962706
          ],
          [
            132.61379316186773,
            34.24219614098896
          ],
          [
            132.6139918202195,
            34.242042224674734
          ],
          [
            132.61400635612816,
            34.24202713485012
          ],
          [
            132.61432494057175,
            34.24228567027238
          ]
        ]
      }
    },
    {
      "type": "Feature",
      "properties": {
        "stroke": "#c800ff",
        "stroke-width": "3",
        "fill": "#FFFF00",
        "name": "横路小学校ルート2",
        "Name": "横路小学校ルート2",
        "route_group": "横路小学校ルート"
      },
      "geometry": {
        "type": "LineString",
        "coordinates": [
          [
            132.61432641436585,
            34.24230138569546
          ],
          [
            132.6140471521058,
            34.242078615705395
          ],
          [
            132.6138322037049,
            34.24225195419671
          ],
          [
            132.61418216248578,
            34.24273244262507
          ],
          [
            132.6147099308173,
            34.24307174115467
          ],
          [
            132.61495691439984,
            34.24309593458673
          ],
          [
            132.61510645497697,
            34.24291353830659
          ],
          [
            132.61604608255098,
            34.24304774862655
          ],
          [
            132.6164086274191,
            34.24320086452671
          ],
          [
            132.6164180046745,
            34.24322803535738
          ],
          [
            132.61646660074075,
            34.24326654208192
          ],
          [
            132.61651224004893,
            34.24335613718968
          ],
          [
            132.6167070307083,
            34.2434585250435
          ],
          [
            132.61744473645751,
            34.243788471639476
          ],
          [
            132.61771457288287,
            34.24390433248619
          ],
          [
            132.61796514505625,
            34.243962738322125
          ],
          [
            132.61812364526045,
            34.244016781753224
          ],
          [
            132.61824824340158,
            34.24407049216894
          ],
          [
            132.6184108278813,
            34.24443280644556
          ],
          [
            132.61858273817666,
            34.24447466699105
          ],
          [
            132.6189635207339,
            34.24492835023919
          ],
          [
            132.619280006073,
            34.24522239836882
          ],
          [
            132.6196617433732,
            34.245466302765784
          ],
          [
            132.6198430105596,
            34.2454909443145
          ],
          [
            132.62003662333393,
            34.24549981283123
          ],
          [
            132.6202532814658,
            34.245591909466064
          ],
          [
            132.62049581270526,
            34.24570397318929
          ],
          [
            132.6206078926308,
            34.24581459841543
          ],
          [
            132.62071152514108,
            34.24600256860193
          ],
          [
            132.62081566670042,
            34.24612899779281
          ],
          [
            132.62089792060658,
            34.246319206056526
          ],
          [
            132.62097960621898,
            34.246382029398
          ],
          [
            132.62122192287208,
            34.24637561677906
          ],
          [
            132.6213743401591,
            34.246444640607216
          ],
          [
            132.62128525156027,
            34.24658534477946
          ],
          [
            132.62119040205297,
            34.24666801574574
          ],
          [
            132.62116920730136,
            34.24673623272043
          ],
          [
            132.62116816059864,
            34.2469013385517
          ],
          [
            132.62110204335048,
            34.247080428809554
          ],
          [
            132.6210567770164,
            34.24722731755396
          ],
          [
            132.62086788973926,
            34.2473773941042
          ]
        ]
      }
    },
    {
      "type": "Feature",
      "properties": {
        "stroke": "#ff8800",
        "stroke-width": "3",
        "fill": "#FFFF00",
        "name": "横路小学校ルート3",
        "Name": "横路小学校ルート3",
        "route_group": "横路小学校ルート"
      },
      "geometry": {
        "type": "LineString",
        "coordinates": [
          [
            132.61433070902723,
            34.242294541363805
          ],
          [
            132.61398845423633,
            34.242012336315554
          ],
          [
            132.6137824211287,
            34.242181141198124
          ],
          [
            132.61369098984383,
            34.242099722185785
          ],
          [
            132.61339954908752,
            34.24192490667782
          ],
          [
            132.6130310168445,
            34.24171123568631
          ],
          [
            132.61280031497853,
            34.241582477917646
          ],
          [
            132.61256185335995,
            34.24196047954745
          ],
          [
            132.6123864902813,
            34.24226212476262
          ],
          [
            132.61231541564726,
            34.242380366591995
          ],
          [
            132.61203427074142,
            34.24251531962054
          ],
          [
            132.61198615905514,
            34.24256070277977
          ],
          [
            132.61190408770574,
            34.242687318507876
          ],
          [
            132.6117508560503,
            34.24270939269192
          ],
          [
            132.61167087008448,
            34.2427359372103
          ],
          [
            132.6116940900951,
            34.24294540252946
          ],
          [
            132.61172931006894,
            34.24298546622166
          ],
          [
            132.6117541604514,
            34.24314717996971
          ],
          [
            132.61174493142957,
            34.24318338214465
          ],
          [
            132.61177105963722,
            34.2434180578413
          ],
          [
            132.61178021787265,
            34.243625403995814
          ],
          [
            132.61182317623977,
            34.243648368748225
          ],
          [
            132.61202039758348,
            34.24366427564878
          ],
          [
            132.61214608301344,
            34.24363341739897
          ],
          [
            132.61224426903394,
            34.24362542955202
          ],
          [
            132.61241824612932,
            34.24361868587488
          ],
          [
            132.6125189930775,
            34.24361724659584
          ],
          [
            132.6127971826924,
            34.24364914542362
          ],
          [
            132.61295861445052,
            34.243679566051966
          ],
          [
            132.6130282185113,
            34.243718124665634
          ],
          [
            132.61306189912986,
            34.24385430171905
          ],
          [
            132.61308863878045,
            34.24392085433695
          ],
          [
            132.6131447243944,
            34.24394945470533
          ],
          [
            132.61323172348705,
            34.24395320289451
          ],
          [
            132.61325118832727,
            34.24402560303194
          ],
          [
            132.6132351628344,
            34.24393958837326
          ],
          [
            132.6133348920361,
            34.2438330144595
          ],
          [
            132.61338388544812,
            34.243808422652165
          ],
          [
            132.6134764593054,
            34.243776053541794
          ],
          [
            132.6134965350634,
            34.24368680224547
          ],
          [
            132.61349653283116,
            34.24362694172723
          ],
          [
            132.6134590716418,
            34.2435708123753
          ],
          [
            132.61340563835788,
            34.243534674233466
          ],
          [
            132.61333594148903,
            34.24351112030249
          ],
          [
            132.61323001824798,
            34.243470904136096
          ],
          [
            132.61318890237175,
            34.24341682155939
          ],
          [
            132.61316338000228,
            34.24335929042005
          ],
          [
            132.61302845012625,
            34.243210987430395
          ],
          [
            132.61304223403934,
            34.24316812591765
          ],
          [
            132.61315457884115,
            34.24301722766904
          ],
          [
            132.61327006198405,
            34.24285954230943
          ],
          [
            132.61344668131576,
            34.24264160227969
          ],
          [
            132.61367613029898,
            34.242355937733194
          ],
          [
            132.61378716657129,
            34.24223925267248
          ],
          [
            132.61387885374683,
            34.24220111532572
          ],
          [
            132.61402527258582,
            34.242078010187605
          ],
          [
            132.61432342318457,
            34.242322847784855
          ]
        ]
      }
    },
    {
      "type": "Feature",
      "properties": {
        "stroke": "#0033ff",
        "stroke-width": "3",
        "fill": "#FFFF00",
        "name": "横路小学校ルート4",
        "Name": "横路小学校ルート4",
        "route_group": "横路小学校ルート"
      },
      "geometry": {
        "type": "LineString",
        "coordinates": [
          [
            132.61432497282772,
            34.24229077618219
          ],
          [
            132.61405943802794,
            34.24207553263962
          ],
          [
            132.61400671244812,
            34.241997981556565
          ],
          [
            132.6142484920215,
            34.241788899295344
          ],
          [
            132.61429289159992,
            34.24173411656117
          ],
          [
            132.61427449734543,
            34.24169144934628
          ],
          [
            132.61211197050895,
            34.24074650476968
          ],
          [
            132.61185601015416,
            34.24064562023939
          ],
          [
            132.61137244571842,
            34.24039710059031
          ],
          [
            132.61111440136062,
            34.24026743751201
          ],
          [
            132.61061758125422,
            34.239932728116344
          ],
          [
            132.61069466702648,
            34.23986261151736
          ],
          [
            132.610724033032,
            34.23987393468952
          ],
          [
            132.61109484493844,
            34.23944469809797
          ],
          [
            132.6115667326205,
            34.23889611792024
          ],
          [
            132.6115552040358,
            34.238851304476235
          ],
          [
            132.611614848,
            34.238790584103135
          ],
          [
            132.61148593921112,
            34.23865795893423
          ],
          [
            132.61129353890124,
            34.23845982004345
          ],
          [
            132.6111973390937,
            34.238341575678206
          ],
          [
            132.61125890694,
            34.238288844717935
          ],
          [
            132.61117841792435,
            34.238240919756954
          ],
          [
            132.61140011582137,
            34.23817808111076
          ],
          [
            132.61140363374864,
            34.23812840771226
          ],
          [
            132.61116439188928,
            34.237514796230414
          ],
          [
            132.611195576703,
            34.23750392067965
          ],
          [
            132.61170079166055,
            34.237339731596165
          ],
          [
            132.6116708377201,
            34.23728251464291
          ]
        ]
      }
    },
    {
      "type": "Feature",
      "properties": {
        "stroke": "#FFFF00",
        "stroke-width": "3",
        "fill": "#FFFF00",
        "name": "横路小学校ルート5",
        "Name": "横路小学校ルート5",
        "route_group": "横路小学校ルート"
      },
      "geometry": {
        "type": "LineString",
        "coordinates": [
          [
            132.6143233501459,
            34.24228157240643
          ],
          [
            132.61407228179112,
            34.24207398942851
          ],
          [
            132.61408116915527,
            34.242038008352004
          ],
          [
            132.6142755799099,
            34.24188762577179
          ],
          [
            132.6143500238025,
            34.241820298175156
          ],
          [
            132.6143111873688,
            34.241765929540215
          ],
          [
            132.61429010415495,
            34.241683913850316
          ],
          [
            132.61433448922818,
            34.241616642409966
          ],
          [
            132.6144587678665,
            34.241572408787654
          ],
          [
            132.61525102999292,
            34.24089518749581
          ],
          [
            132.6152466087229,
            34.2408087671493
          ],
          [
            132.61529419821315,
            34.24073247922911
          ],
          [
            132.61538273717855,
            34.24075178077715
          ],
          [
            132.61545356724815,
            34.24076189106798
          ],
          [
            132.61557862975175,
            34.240730640112545
          ],
          [
            132.61564950496927,
            34.24070760817935
          ],
          [
            132.6155422301693,
            34.24042840044806
          ],
          [
            132.6154272151852,
            34.2401868489452
          ],
          [
            132.61536752019077,
            34.240057574682105
          ],
          [
            132.6153907146021,
            34.240034642656084
          ],
          [
            132.6156602115681,
            34.239939244809314
          ],
          [
            132.6158802668896,
            34.239840321390666
          ],
          [
            132.61588992846333,
            34.239776066926666
          ],
          [
            132.61558651586483,
            34.23928493261767
          ],
          [
            132.61547471038304,
            34.2390972201576
          ]
        ]
      }
    },
    {
      "type": "Feature",
      "properties": {
        "stroke": "#ff0000",
        "stroke-width": "3",
        "fill": "#FFFF00",
        "name": "横路小学校ルート6",
        "Name": "横路小学校ルート6",
        "route_group": "横路小学校ルート"
      },
      "geometry": {
        "type": "LineString",
        "coordinates": [
          [
            132.6143282625859,
            34.24230802383513
          ],
          [
            132.61407173433184,
            34.24205008379136
          ],
          [
            132.61440748658077,
            34.24178959679357
          ],
          [
            132.61444599989306,
            34.24178943189283
          ],
          [
            132.61454660637364,
            34.24181861493302
          ],
          [
            132.61459513943714,
            34.24175181377255
          ],
          [
            132.61542282605183,
            34.24209383284457
          ],
          [
            132.61598169823017,
            34.24234078212273
          ],
          [
            132.6170576235912,
            34.24282840361555
          ],
          [
            132.61987667460232,
            34.24414221242776
          ],
          [
            132.6219563548556,
            34.245126916604775
          ],
          [
            132.6222147395705,
            34.24526257163123
          ],
          [
            132.6221814346042,
            34.245331448367814
          ],
          [
            132.6219540774188,
            34.24523181063921
          ],
          [
            132.6214310489347,
            34.24498407375062
          ],
          [
            132.62107519744853,
            34.244814334494144
          ],
          [
            132.62056987849635,
            34.244571957990566
          ],
          [
            132.61995952391354,
            34.244296137259525
          ],
          [
            132.61925731423776,
            34.24396572121728
          ],
          [
            132.61827262240124,
            34.24350340381395
          ],
          [
            132.6181841058893,
            34.24394882434899
          ],
          [
            132.6180496217536,
            34.243982202269784
          ],
          [
            132.6177720634562,
            34.24390936837623
          ],
          [
            132.61701546875673,
            34.24358483061134
          ],
          [
            132.61652274243744,
            34.243371304743796
          ],
          [
            132.61643773238544,
            34.24323864832547
          ],
          [
            132.6160725071529,
            34.2430502124859
          ],
          [
            132.6150936158888,
            34.24290752806638
          ],
          [
            132.61495831392213,
            34.24309655920321
          ],
          [
            132.61470273469513,
            34.24307249634172
          ],
          [
            132.61419812830485,
            34.242748312849955
          ],
          [
            132.61383256023697,
            34.242258683455404
          ],
          [
            132.61404242989,
            34.24207712102727
          ],
          [
            132.61431546272536,
            34.24232528954821
          ]
        ]
      }
    }
  ]
}
